NORAD_CAT_ID,OBJECT_NAME,OBJECT_TYPE,EPOCH,MEAN_MOTION,ECCENTRICITY,INCLINATION,RA_OF_ASC_NODE,ARG_OF_PERICENTER,MEAN_ANOMALY,BSTAR,MEAN_MOTION_DOT,MEAN_MOTION_DDOT,TLE_LINE0,TLE_LINE1,TLE_LINE2,SEMIMAJOR_AXIS,PERIOD,APOGEE,PERIGEE,DECAYED
55936.0,STARLINK-5882,PAYLOAD,2024-03-13 23:38:01,14.98333324,0.0002959,69.9985,294.0526,268.5513,91.5307,-1.188e-05,-2.35e-06,0.0,0 STARLINK-5882,1 55936U 23037Y   24073.98474004 -.00000235  00000-0 -11880-4 0  9999,2 55936  69.9985 294.0526 0002959 268.5513  91.5307 14.98333324 55778,6950.183,96.107,574.104,569.991,0.0
55936.0,STARLINK-5882,PAYLOAD,2024-03-14 07:38:42,14.98328872,0.0002949,69.9984,293.2108,269.6702,90.4119,-4.0446e-05,-5.76e-06,0.0,0 STARLINK-5882,1 55936U 23037Y   24074.31854333 -.00000576  00000-0 -40446-4 0  9992,2 55936  69.9984 293.2108 0002949 269.6702  90.4119 14.98328872 56160,6950.196,96.107,574.111,570.012,0.0
55936.0,STARLINK-5882,PAYLOAD,2024-03-14 22:03:54,14.98328158,0.000298,69.998,291.6955,270.3253,89.7565,-3.8126e-05,-5.48e-06,0.0,0 STARLINK-5882,1 55936U 23037Y   24074.91938399 -.00000548  00000-0 -38126-4 0  9994,2 55936  69.9980 291.6955 0002980 270.3253  89.7565 14.98328158 55918,6950.199,96.107,574.135,569.992,0.0
55936.0,STARLINK-5882,PAYLOAD,2024-03-15 14:05:15,14.98330527,0.0002761,69.9986,290.0114,271.9049,88.1794,2.5043e-06,-6.3e-07,0.0,0 STARLINK-5882,1 55936U 23037Y   24075.58698214 -.00000063  00000-0  25043-5 0  9993,2 55936  69.9986 290.0114 0002761 271.9049  88.1794 14.98330527 56350,6950.191,96.107,573.975,570.137,0.0
55936.0,STARLINK-5882,PAYLOAD,2024-03-15 22:05:55,14.98329775,0.0002924,69.9984,289.1701,270.1177,89.9647,-1.6451e-05,-2.89e-06,0.0,0 STARLINK-5882,1 55936U 23037Y   24075.92078268 -.00000289  00000-0 -16451-4 0  9995,2 55936  69.9984 289.1701 0002924 270.1177  89.9647 14.98329775 56060,6950.194,96.107,574.091,570.026,0.0
55936.0,STARLINK-5882,PAYLOAD,2024-03-16 14:07:16,14.98328686,0.0003028,69.9986,287.4856,272.1277,87.9535,3.4755e-05,3.22e-06,0.0,0 STARLINK-5882,1 55936U 23037Y   24076.58838179  .00000322  00000-0  34755-4 0  9996,2 55936  69.9986 287.4856 0003028 272.1277  87.9535 14.98328686 56168,6950.197,96.107,574.166,569.957,0.0
55936.0,STARLINK-5882,PAYLOAD,2024-03-16 20:31:48,14.98329121,0.0003073,69.9978,286.8133,268.9461,91.1345,1.1452e-05,4.4e-07,0.0,0 STARLINK-5882,1 55936U 23037Y   24076.85542217  .00000044  00000-0  11452-4 0  9991,2 55936  69.9978 286.8133 0003073 268.9461  91.1345 14.98329121 56541,6950.196,96.107,574.196,569.925,0.0
55936.0,STARLINK-5882,PAYLOAD,2024-03-16 22:07:56,14.98329103,0.0003072,69.9978,286.6449,268.9299,91.1508,1.1053e-05,3.9e-07,0.0,0 STARLINK-5882,1 55936U 23037Y   24076.92218221  .00000039  00000-0  11053-4 0  9995,2 55936  69.9978 286.6449 0003072 268.9299  91.1508 14.98329103 56212,6950.196,96.107,574.196,569.926,0.0
55936.0,STARLINK-5882,PAYLOAD,2024-03-17 14:09:17,14.98331774,0.0003123,69.9976,284.9618,268.8897,91.1904,1.3049e-05,6.3e-07,0.0,0 STARLINK-5882,1 55936U 23037Y   24077.58978010  .00000063  00000-0  13049-4 0  9991,2 55936  69.9976 284.9618 0003123 268.8897  91.1904 14.98331774 56317,6950.187,96.107,574.223,569.882,0.0
55936.0,STARLINK-5882,PAYLOAD,2024-03-17 20:33:49,14.98332644,0.0003109,69.9977,284.2884,269.2572,90.823,2.3805e-05,1.91e-06,0.0,0 STARLINK-5882,1 55936U 23037Y   24077.85681885  .00000191  00000-0  23805-4 0  9995,2 55936  69.9977 284.2884 0003109 269.2572  90.8230 14.98332644 56691,6950.185,96.107,574.211,569.889,0.0
55936.0,STARLINK-5882,PAYLOAD,2024-03-17 22:09:57,14.98332988,0.0003105,69.9977,284.12,269.3496,90.7307,2.7531e-05,2.35e-06,0.0,0 STARLINK-5882,1 55936U 23037Y   24077.92357840  .00000235  00000-0  27531-4 0  9993,2 55936  69.9977 284.1200 0003105 269.3496  90.7307 14.98332988 56363,6950.184,96.107,574.207,569.891,0.0
55936.0,STARLINK-5882,PAYLOAD,2024-03-17 23:46:05,14.9833337,0.0003077,69.9977,283.9514,267.4758,92.6049,3.3042e-05,3.01e-06,0.0,0 STARLINK-5882,1 55936U 23037Y   24077.99033775  .00000301  00000-0  33042-4 0  9996,2 55936  69.9977 283.9514 0003077 267.4758  92.6049 14.98333370 56377,6950.182,96.107,574.186,569.909,0.0
55936.0,STARLINK-5882,PAYLOAD,2024-03-18 20:35:50,14.98335537,0.0002798,69.9975,281.7619,268.4914,91.5925,-0.0001509,-1.893e-05,0.0,0 STARLINK-5882,1 55936U 23037Y   24078.85822087 -.00001893  00000-0 -15090-3 0  9995,2 55936  69.9975 281.7619 0002798 268.4914  91.5925 14.98335537 56841,6950.176,96.107,573.985,570.096,0.0
55936.0,STARLINK-5882,PAYLOAD,2024-03-18 22:11:58,14.98328498,0.0003055,69.9974,281.5935,268.9273,91.1536,-2.1644e-06,-1.19e-06,0.0,0 STARLINK-5882,1 55936U 23037Y   24078.92498109 -.00000119  00000-0 -21644-5 0  9991,2 55936  69.9974 281.5935 0003055 268.9273  91.1536 14.98328498 56515,6950.198,96.107,574.186,569.939,0.0
55936.0,STARLINK-5882,PAYLOAD,2024-03-18 23:48:06,14.98329862,0.0003101,69.9975,281.4253,270.1256,89.9548,9.6023e-07,-8.2e-07,0.0,0 STARLINK-5882,1 55936U 23037Y   24078.99174016 -.00000082  00000-0  96023-6 0  9998,2 55936  69.9975 281.4253 0003101 270.1256  89.9548 14.98329862 56521,6950.193,96.107,574.214,569.903,0.0
55936.0,STARLINK-5882,PAYLOAD,2024-03-19 20:37:51,14.98269636,0.0002691,69.9975,279.236,272.7762,87.3089,0.0011236,0.00013318,0.0,0 STARLINK-5882,1 55936U 23037Y   24079.85962931  .00013318  00000-0  11236-2 0  9999,2 55936  69.9975 279.2360 0002691 272.7762  87.3089 14.98269636 56993,6950.38,96.111,574.115,570.374,0.0
55936.0,STARLINK-5882,PAYLOAD,2024-03-19 23:50:06,14.98342719,0.0003055,69.9976,278.8993,270.3197,89.7611,-5.1787e-05,-7.11e-06,0.0,0 STARLINK-5882,1 55936U 23037Y   24079.99313060 -.00000711  00000-0 -51787-4 0  9999,2 55936  69.9976 278.8993 0003055 270.3197  89.7611 14.98342719 57017,6950.154,96.106,574.142,569.895,0.0
55936.0,STARLINK-5882,PAYLOAD,2024-03-20 14:15:19,14.9832307,0.000296,69.9985,277.3856,269.1088,90.9732,4.4211e-05,4.34e-06,0.0,0 STARLINK-5882,1 55936U 23037Y   24080.59397909  .00000434  00000-0  44211-4 0  9995,2 55936  69.9985 277.3856 0002960 269.1088  90.9732 14.98323070 56766,6950.214,96.107,574.137,570.022,0.0
55936.0,STARLINK-5882,PAYLOAD,2024-03-20 20:39:52,14.9829809,0.000302,69.9981,276.7123,266.8276,93.2538,0.00034077,3.972e-05,0.0,0 STARLINK-5882,1 55936U 23037Y   24080.86102577  .00003972  00000-0  34077-3 0  9998,2 55936  69.9981 276.7123 0003020 266.8276  93.2538 14.98298090 57149,6950.292,96.109,574.256,570.058,0.0
55936.0,STARLINK-5882,PAYLOAD,2024-03-20 22:16:00,14.98281227,0.0003038,69.998,276.5439,263.5569,96.5245,0.00062093,7.314e-05,0.0,0 STARLINK-5882,1 55936U 23037Y   24080.92778852  .00007314  00000-0  62093-3 0  9993,2 55936  69.9980 276.5439 0003038 263.5569  96.5245 14.98281227 56812,6950.344,96.11,574.32,570.097,0.0
55936.0,STARLINK-5882,PAYLOAD,2024-03-21 12:41:12,14.98330681,0.0003057,69.9982,275.0302,265.4778,94.6032,-3.341e-05,-4.92e-06,0.0,0 STARLINK-5882,1 55936U 23037Y   24081.52861876 -.00000492  00000-0 -33410-4 0  9993,2 55936  69.9982 275.0302 0003057 265.4778  94.6032 14.98330681 57241,6950.191,96.107,574.18,569.931,0.0
55936.0,STARLINK-5882,PAYLOAD,2024-03-21 14:17:20,14.98333379,0.000295,69.9981,274.8614,262.9303,97.152,-2.7123e-05,-4.17e-06,0.0,0 STARLINK-5882,1 55936U 23037Y   24081.59537684 -.00000417  00000-0 -27123-4 0  9998,2 55936  69.9981 274.8614 0002950 262.9303  97.1520 14.98333379 56910,6950.182,96.107,574.098,569.997,0.0
55936.0,STARLINK-5882,PAYLOAD,2024-03-21 22:18:00,14.98334327,0.000296,69.998,274.019,267.5238,92.5582,-7.7593e-06,-1.86e-06,0.0,0 STARLINK-5882,1 55936U 23037Y   24081.92917524 -.00000186  00000-0 -77593-5 0  9990,2 55936  69.9980 274.0190 0002960 267.5238  92.5582 14.98334327 56965,6950.18,96.107,574.102,569.987,0.0
55936.0,STARLINK-5882,PAYLOAD,2024-03-22 12:43:13,14.98328428,0.0003058,69.9977,272.5036,268.2536,91.8272,7.4623e-05,7.97e-06,0.0,0 STARLINK-5882,1 55936U 23037Y   24082.53001554  .00000797  00000-0  74623-4 0  9991,2 55936  69.9977 272.5036 0003058 268.2536  91.8272 14.98328428 57392,6950.198,96.107,574.188,569.937,0.0
55936.0,STARLINK-5882,PAYLOAD,2024-03-22 14:19:21,14.98328717,0.0003067,69.9977,272.3349,267.8425,92.2383,7.4581e-05,7.97e-06,0.0,0 STARLINK-5882,1 55936U 23037Y   24082.59677531  .00000797  00000-0  74581-4 0  9994,2 55936  69.9977 272.3349 0003067 267.8425  92.2383 14.98328717 57062,6950.197,96.107,574.193,569.93,0.0
55936.0,STARLINK-5882,PAYLOAD,2024-03-22 22:20:01,14.98330161,0.0003052,69.9981,271.4935,267.9293,92.1516,8.1933e-05,8.85e-06,0.0,0 STARLINK-5882,1 55936U 23037Y   24082.93057419  .00000885  00000-0  81933-4 0  9996,2 55936  69.9981 271.4935 0003052 267.9293  92.1516 14.98330161 57115,6950.192,96.107,574.179,569.936,0.0
55936.0,STARLINK-5882,PAYLOAD,2024-03-23 12:45:14,14.98332013,0.0002945,69.9984,269.9779,266.1649,93.9173,-1.8073e-05,-3.09e-06,0.0,0 STARLINK-5882,1 55936U 23037Y   24083.53141554 -.00000309  00000-0 -18073-4 0  9995,2 55936  69.9984 269.9779 0002945 266.1649  93.9173 14.98332013 57545,6950.187,96.107,574.098,570.005,0.0
55936.0,STARLINK-5882,PAYLOAD,2024-03-23 22:22:02,14.9833286,0.0002977,69.9984,268.9692,268.5339,91.5479,-1.0313e-05,-2.16e-06,0.0,0 STARLINK-5882,1 55936U 23037Y   24083.93197425 -.00000216  00000-0 -10313-4 0  9993,2 55936  69.9984 268.9692 0002977 268.5339  91.5479 14.98332860 57267,6950.184,96.107,574.118,569.98,0.0
55936.0,STARLINK-5882,PAYLOAD,2024-03-24 12:47:15,14.98332916,0.0002973,69.9985,267.4537,270.4771,89.6048,-3.9649e-06,-1.4e-06,0.0,0 STARLINK-5882,1 55936U 23037Y   24084.53281298 -.00000140  00000-0 -39649-5 0  9992,2 55936  69.9985 267.4537 0002973 270.4771  89.6048 14.98332916 57697,6950.184,96.107,574.115,569.983,0.0
55936.0,STARLINK-5882,PAYLOAD,2024-03-24 14:23:23,14.98333454,0.0002988,69.9986,267.2851,271.2632,88.8185,2.5575e-06,-6.3e-07,0.0,0 STARLINK-5882,1 55936U 23037Y   24084.59957232 -.00000063  00000-0  25575-5 0  9992,2 55936  69.9986 267.2851 0002988 271.2632  88.8185 14.98333454 57361,6950.182,96.107,574.124,569.97,0.0
